0 SL-8 DEB *
1 03743U 65020ES  13284.46168979 -.00000102  00000-0 -12600-3 0  6127
2 03743 056.6627 032.2911 0266366 058.2090 013.6736 12.20206238  9283
0 SL-8 DEB *
1 03743U 65020ES  13286.68996051 -.00000170  00000-0 -70867-3 0  6138
2 03743 056.6636 026.6896 0266275 060.7756 081.9126 12.20206619  9552
0 SL-8 DEB *
1 03743U 65020ES  13290.27056259 -.00000061  00000-0  22454-3 0  6143
2 03743 056.6629 017.6869 0266162 064.8865 330.6345 12.20205429  9998
0 SL-8 DEB *
1 03743U 65020ES  13293.22004752  .00000035  00000-0  10504-2 0  6155
2 03743 056.6624 010.2708 0266070 068.2739 327.0021 12.20205189 10356
0 SL-8 DEB *
1 03743U 65020ES  13295.35873259 -.00000055  00000-0  28045-3 0  6161
2 03743 056.6616 004.8932 0265973 070.7147 001.7299 12.20205813 10613
